ONEWEB-0560             
1 55145U 23004F   25155.43840083  .00000025  00000+0  29725-4 0  9992
2 55145  87.9149  50.5579 0001961  88.8271 271.3086 13.18687917119922
ONEWEB-0565             
1 55146U 23004G   25155.43208208  .00000098  00000+0  21574-3 0  9993
2 55146  87.9143  50.6200 0002429  84.8641 275.2768 13.18686856119916
ONEWEB-0567             
1 55147U 23004H   25155.42576098  .00000015  00000+0  60987-5 0  9990
2 55147  87.9145  50.5772 0002247  88.7165 271.4224 13.18686400119914
ONEWEB-0569             
1 55148U 23004J   25155.39578339 -.00000198  00000+0 -57585-3 0  9999
2 55148  87.8979  35.2789 0002397 105.1786 254.9608 13.13470230120580
ONEWEB-0570             
1 55149U 23004K   25155.41311716  .00000092  00000+0  19993-3 0  9999
2 55149  87.9145  50.5824 0002457  70.9126 289.2272 13.18687147119905
ONEWEB-0571             
1 55150U 23004L   25155.40679716  .00000065  00000+0  13334-3 0  9990
2 55150  87.9144  50.5913 0002993  95.8858 264.2615 13.18685826119915
ONEWEB-0572             
1 55151U 23004M   25155.35721634  .00000066  00000+0  13595-3 0  9992
2 55151  87.9068  81.0917 0002282  78.2503 281.8885 13.17650780117728
ONEWEB-0573             
1 55152U 23004N   25155.24871269  .00000026  00000+0  33052-4 0  9998
2 55152  87.9144  50.6296 0002794  83.1499 276.9950 13.18686481119888
